{
  "norad_id": 57334,
  "name": "STARLINK-5589",
  "history": [
    {
      "epoch": "2026-03-28T22:00:01.999584",
      "apogee_km": 505.8522830806305,
      "perigee_km": 504.05854919698504,
      "latitude_deg": -39.07180112495873,
      "longitude_deg": 1.4022217597812414,
      "semi_major_axis_km": 6883.0924161388075,
      "eccentricity": 0.0001303,
      "inclination_deg": 43.0004,
      "raan_deg": 143.655,
      "arg_perigee_deg": 300.6689,
      "mean_anomaly_deg": 241.7579,
      "mean_motion_rev_day": 15.20293228
    },
    {
      "epoch": "2026-03-29T04:00:01.999584",
      "apogee_km": 505.15018200855957,
      "perigee_km": 503.1020205096247,
      "latitude_deg": 11.949687706900459,
      "longitude_deg": 25.40222175978124,
      "semi_major_axis_km": 6882.263101259092,
      "eccentricity": 0.0001488,
      "inclination_deg": 43.0005,
      "raan_deg": 142.2628,
      "arg_perigee_deg": 314.6868,
      "mean_anomaly_deg": 157.3539,
      "mean_motion_rev_day": 15.2056803
    }
  ]
}